STARLINK-31691          
1 59856U 24097X   26068.83431115 -.00001985  00000+0 -62593-4 0  9996
2 59856  43.0044 273.1300 0001941 276.3289  83.7342 15.27587247101948
TEVEL2-1                
1 63217U 25052H   26068.64782323  .00020683  00000+0  70600-3 0  9994
2 63217  97.3991 324.7682 0004767 104.8919 255.2849 15.30341923 54855
